BEIDOU-2 IGSO-1 (C06)   
1 36828U 10036A   24232.61213582 -.00000153  00000+0  00000+0 0  9996
2 36828  54.2576 168.9936 0041462 205.9839 281.2703  1.00263448 51527
BEIDOU-2 G4 (C04)       
1 37210U 10057A   24233.15489020 -.00000118  00000+0  00000+0 0  9998
2 37210   1.9948  69.4814 0005980 153.0201 322.3326  1.00272005 50601
BEIDOU-2 IGSO-2 (C07)   
1 37256U 10068A   24232.54058100 -.00000159  00000+0  00000+0 0  9998
2 37256  48.7611 280.0478 0040559 216.4600 134.1718  1.00283012 50101
BEIDOU-2 IGSO-3 (C08)   
1 37384U 11013A   24232.42254497 -.00000146  00000+0  00000+0 0  9991
2 37384  61.4510  46.5006 0031983 173.0687   6.7920  1.00292570 48979
BEIDOU-2 IGSO-4 (C09)   
1 37763U 11038A   24232.82522727 -.00000066  00000+0  00000+0 0  9998
2 37763  54.5646 171.6208 0129148 229.5278 317.2292  1.00293588 47950
BEIDOU-2 IGSO-5 (C10)   
1 37948U 11073A   24232.60015075 -.00000104  00000+0  00000+0 0  9994
2 37948  48.8948 279.7389 0103118 221.2048 139.6950  1.00279005 46458
BEIDOU-2 G5 (C05)       
1 38091U 12008A   24233.15535491  .00000051  00000+0  00000+0 0  9993
2 38091   2.2274  71.2299 0003619 219.8535 152.5693  1.00267976 45808
BEIDOU-2 M3 (C11)       
1 38250U 12018A   24232.29357424 -.00000066  00000+0  00000+0 0  9990
2 38250  56.2939 327.2434 0023167 260.4311  99.3524  1.86231133 83523
BEIDOU-2 M4 (C12)       
1 38251U 12018B   24231.68656221 -.00000065  00000+0  00000+0 0  9999
2 38251  56.2004 326.5304 0014062 259.8320 100.0540  1.86231840 83513
BEIDOU-2 M6 (C14)       
1 38775U 12050B   24231.93314323  .00000018  00000+0  00000+0 0  9995
2 38775  55.9621  85.0655 0011921 347.8071  12.2607  1.86231096 80881
BEIDOU-2 G6 (C02)       
1 38953U 12059A   24232.63339839 -.00000181  00000+0  00000+0 0  9991
2 38953   2.7164  80.0246 0007303 318.8392 241.6289  1.00269093 43220
BEIDOU-3S IGSO-1S (C31) 
1 40549U 15019A   24232.63970029 -.00000154  00000+0  00000+0 0  9996
2 40549  50.4535 303.4445 0036579 196.0422 154.1651  1.00291487 34386
BEIDOU-3S M2S (C58)     
1 40748U 15037A   24230.81229911 -.00000064  00000+0  00000+0 0  9992
2 40748  55.4313 324.9415 0011079 245.7810 114.1477  1.86233136 61677
BEIDOU-3S M1S (C57)     
1 40749U 15037B   24227.32562927 -.00000077  00000+0  00000+0 0  9996
2 40749  55.4367 325.0465 0002490 330.0919  29.9310  1.86227597 61616
BEIDOU-3S IGSO-2S (C56) 
1 40938U 15053A   24233.07013022 -.00000082  00000+0  00000+0 0  9996
2 40938  50.2586 266.6577 0053271 189.5720 352.2347  1.00291593 32664
BEIDOU-2 IGSO-6 (C13)   
1 41434U 16021A   24232.51846700 -.00000116  00000+0  00000+0 0  9997
2 41434  59.2713  44.7076 0048997 220.7696 342.8027  1.00259134 30781
BEIDOU-2 G7 (C03)       
1 41586U 16037A   24233.04424310 -.00000360  00000+0  00000+0 0  9991
2 41586   1.5295  65.2948 0007772 359.4534  30.5268  1.00276713 30103
BEIDOU-3 M1 (C19)       
1 43001U 17069A   24232.23605018  .00000018  00000+0  00000+0 0  9996
2 43001  56.1121  85.1603 0008038 311.1557  48.8717  1.86231337 46189
BEIDOU-3 M2 (C20)       
1 43002U 17069B   24232.17345547  .00000018  00000+0  00000+0 0  9998
2 43002  56.1116  85.1982 0006755 344.2214  15.8544  1.86230946 46171
BEIDOU-3 M7 (C27)       
1 43107U 18003A   24232.45885739 -.00000065  00000+0  00000+0 0  9999
2 43107  54.8880 325.4487 0003445  87.9254 272.1620  1.86232379 44946
BEIDOU-3 M8 (C28)       
1 43108U 18003B   24230.78895072 -.00000065  00000+0  00000+0 0  9995
2 43108  54.8825 325.4915 0004051 247.2437 112.7568  1.86230861 44911
BEIDOU-3 M4 (C22)       
1 43207U 18018A   24232.30415007  .00000018  00000+0  00000+0 0  9994
2 43207  56.0710  85.2449 0005635  21.0496 339.0704  1.86231254 44321
BEIDOU-3 M3 (C21)       
1 43208U 18018B   24231.83382365  .00000018  00000+0  00000+0 0  9992
2 43208  56.0700  85.2651 0006189 329.8995  30.1615  1.86231168 44317
BEIDOU-3 M9 (C29)       
1 43245U 18029A   24233.12831317 -.00000063  00000+0  00000+0 0  9996
2 43245  54.7691 323.1275 0001601 217.9981 142.0439  1.86232406 43495
BEIDOU-3 M10 (C30)      
1 43246U 18029B   24230.91009555 -.00000062  00000+0  00000+0 0  9991
2 43246  54.7681 323.2316 0002552   5.2113 354.8385  1.86232888 43434
BEIDOU-2 IGSO-7 (C16)   
1 43539U 18057A   24232.74979818 -.00000158  00000+0  00000+0 0  9994
2 43539  55.1513 168.8362 0078873 234.0517 306.9175  1.00292142 22449
BEIDOU-3 M5 (C23)       
1 43581U 18062A   24232.20778739  .00000047  00000+0  00000+0 0  9993
2 43581  54.1291 204.9879 0005215 283.1301  76.7789  1.86228557 41211
BEIDOU-3 M6 (C24)       
1 43582U 18062B   24232.07334123  .00000047  00000+0  00000+0 0  9994
2 43582  54.1287 204.9819 0004879   0.9267 359.0420  1.86229572 41219
BEIDOU-3 M12 (C26)      
1 43602U 18067A   24233.08009447  .00000044  00000+0  00000+0 0  9999
2 43602  54.2194 203.6348 0007134  19.4357 340.5540  1.86229581 40717
BEIDOU-3 M11 (C25)      
1 43603U 18067B   24232.14002029  .00000046  00000+0  00000+0 0  9997
2 43603  54.2168 203.6318 0004042   2.4365 357.5316  1.86231388 40720
BEIDOU-3 M13 (C32)      
1 43622U 18072A   24232.10181207  .00000018  00000+0  00000+0 0  9995
2 43622  56.0424  84.7809 0004745 313.1961  46.8606  1.86231448 40236
BEIDOU-3 M14 (C33)      
1 43623U 18072B   24231.96727047  .00000018  00000+0  00000+0 0  9997
2 43623  56.0443  84.7786 0003772   0.0357   0.0608  1.86231446 40223
BEIDOU-3 M16 (C35)      
1 43647U 18078A   24230.51871289 -.00000063  00000+0  00000+0 0  9998
2 43647  54.6675 323.3109 0005960  19.0655 341.0025  1.86232143 39700
BEIDOU-3 M15 (C34)      
1 43648U 18078B   24232.25870874 -.00000062  00000+0  00000+0 0  9990
2 43648  54.6618 323.2533 0002759  33.6399 326.4287  1.86232217 39752
BEIDOU-3 G1 (C59)       
1 43683U 18085A   24232.55170955 -.00000284  00000+0  00000+0 0  9999
2 43683   2.3427 107.2555 0002930  15.6622 184.1663  1.00270760 21370
BEIDOU-3 M17 (C36)      
1 43706U 18093A   24232.94667106  .00000045  00000+0  00000+0 0  9990
2 43706  54.2120 204.9059 0010067 283.8829  75.9692  1.86228166 39111
BEIDOU-3 M18 (C37)      
1 43707U 18093B   24232.81150026  .00000045  00000+0  00000+0 0  9995
2 43707  54.2128 204.9021 0008193 309.7864  50.1060  1.86229692 39123
BEIDOU-3 IGSO-1 (C38)   
1 44204U 19023A   24232.89538391 -.00000189  00000+0  00000+0 0  9995
2 44204  57.7383  44.5570 0023448 204.1529 161.7975  1.00281908 19687
BEIDOU-2 G8 (C01)       
1 44231U 19027A   24232.61511862 -.00000255  00000+0  00000+0 0  9997
2 44231   1.6283  74.2281 0002457 169.5634  90.5587  1.00267097 19390
BEIDOU-3 IGSO-2 (C39)   
1 44337U 19035A   24232.61241230 -.00000166  00000+0  00000+0 0  9993
2 44337  55.1841 164.7145 0035106 204.0114 299.3140  1.00277157 18986
BEIDOU-3 M24 (C46)      
1 44542U 19061A   24232.34423374  .00000047  00000+0  00000+0 0  9998
2 44542  54.4395 205.2251 0008272 345.8497  14.0940  1.86229257 33373
BEIDOU-3 M23 (C45)      
1 44543U 19061B   24233.12161449  .00000045  00000+0  00000+0 0  9996
2 44543  54.4380 205.1677 0005685 328.2874 105.3898  1.86229320 33386
BEIDOU-3 IGSO-3 (C40)   
1 44709U 19073A   24231.55987552 -.00000143  00000+0  00000+0 0  9999
2 44709  55.9422 288.0668 0041348 189.7405 170.3166  1.00283733 17767
BEIDOU-3 M22 (C44)      
1 44793U 19078A   24232.72670993 -.00000063  00000+0  00000+0 0  9996
2 44793  54.5134 323.1587 0004716  27.3194 332.7577  1.86232096 32246
BEIDOU-3 M21 (C43)      
1 44794U 19078B   24232.31939397 -.00000062  00000+0  00000+0 0  9997
2 44794  54.4873 323.1476 0002639  20.2197 339.8421  1.86232539 32237
BEIDOU-3 M19 (C41)      
1 44864U 19090A   24232.35996644  .00000017  00000+0  00000+0 0  9990
2 44864  55.9765  84.9401 0015792 282.9963 296.8410  1.86231606 31810
BEIDOU-3 M20 (C42)      
1 44865U 19090B   24233.23601978  .00000015  00000+0  00000+0 0  9990
2 44865  55.9792  84.9443 0013553 298.2444 238.6564  1.86231508 31808
BEIDOU-3 G2 (C60)       
1 45344U 20017A   24232.87179925 -.00000147  00000+0  00000+0 0  9992
2 45344   2.3953  31.9340 0002762 159.1907 171.4540  1.00272072 16597
BEIDOU-3 G3 (C61)       
1 45807U 20040A   24232.60540758 -.00000360  00000+0  00000+0 0  9996
2 45807   0.8885  49.1596 0002684 357.2583 250.5399  1.00270818 15389
BEIDOU-3 G4             
1 56564U 23066A   24233.15489020 -.00000119  00000+0  00000+0 0  9996
2 56564   1.9675 288.3053 0006257 220.2357  36.2194  1.00270953  4721
BEIDOU-3 M25            
1 58654U 23207A   24229.71753721  .00000005  00000+0  00000+0 0  9997
2 58654  55.1584  85.0020 0000790 328.3255  31.7598  1.86232270  4375
BEIDOU-3 M26            
1 58655U 23207B   24232.20137289  .00000015  00000+0  00000+0 0  9992
2 58655  55.1628  84.9027 0001413 248.2563 111.8245  1.86231837  4406
